CBERS 4                 
1 40336U 14079A   20211.69993389 -.00000004  00000-0  13821-4 0  9993
2 40336  98.5607 283.0305 0001075  58.5999 301.5291 14.35416017295742
CZ-4B R/B               
1 40337U 14079B   20211.41318938 -.00000011  00000-0  55558-5 0  9997
2 40337  98.4536 100.0122 0176809 172.1903 188.2133 14.89392540306644
